GSAT-7                  
1 39234U 13044B   26160.49909235 -.00000060  00000+0  00000+0 0  9994
2 39234   0.0636  99.5765 0003043 189.1445 222.8178  1.00270588 45180
AMOS-4                  
1 39237U 13045A   26160.49735902  .00000024  00000+0  00000+0 0  9995
2 39237   0.0354  92.2240 0002577 324.2847  85.4109  1.00271494 46889
AEHF-3 (USA 246)        
1 39256U 13050A   26160.47056970  .00000045  00000+0  00000+0 0  9994
2 39256   5.2755  67.2537 0087777 188.0666  47.6431  1.00270670 45571
ASTRA 2E                
1 39285U 13056A   26160.13363762  .00000167  00000+0  00000+0 0  9990
2 39285   0.0660 323.6010 0002701 123.8507 246.6953  1.00274204 46333
FM-6                    
1 39360U 13058A   26159.62959519  .00000003  00000+0  00000+0 0  9998
2 39360   0.0107  82.6412 0002771  69.5183 215.1325  1.00255605 45982
RADUGA-1M 3             
1 39375U 13062A   26159.93773906  .00000168  00000+0  00000+0 0  9999
2 39375   5.9359  72.4566 0001476 268.2726 289.1612  1.00272235 46024
SES-8                   
1 39460U 13071A   26160.50325236 -.00000252  00000+0  00000+0 0  9993
2 39460   0.0316 278.4438 0002815 167.2018  88.4086  1.00270194 44355
INMARSAT 5-F1           
1 39476U 13073A   26160.49683902  .00000045  00000+0  00000+0 0  9996
2 39476   0.0176   8.6429 0000452 313.1528 177.5648  1.00271530 45509
TKSAT-1 (TUPAC KATARI)  
1 39481U 13075A   26160.39589963 -.00000178  00000+0  00000+0 0  9993
2 39481   0.0268 159.1668 0002520 269.3123 244.6377  1.00271878 45527
EXPRESS-AM5             
1 39487U 13077A   26159.79924622 -.00000263  00000+0  00000+0 0  9993
2 39487   0.0130 288.2715 0000510  83.6383 313.0502  1.00272967 46274
GSAT-14                 
1 39498U 14001A   26160.49909235  .00000000  00000+0  00000+0 0  9993
2 39498   0.0135   8.2532 0000990 276.5701 226.7132  1.00269526 45306
THAICOM 6               
1 39500U 14002A   26160.42872718 -.00000103  00000+0  00000+0 0  9991
2 39500   0.0849 104.9062 0004518 359.5049  26.2248  1.00269478 45386
TDRS 12                 
1 39504U 14004A   26160.47631219 -.00000255  00000+0  00000+0 0  9999
2 39504   3.9692  18.9520 0002872 197.8626 171.6093  1.00269700 44207
ABS-2                   
1 39508U 14006A   26160.49926568 -.00000069  00000+0  00000+0 0  9994
2 39508   0.0332  78.1662 0004054 346.7040  87.6707  1.00271351 45208
ATHENA-FIDUS            
1 39509U 14006B   26160.20676779  .00000171  00000+0  00000+0 0  9993
2 39509   0.0437 101.5707 0001428 352.5836 275.6670  1.00270971 45009
TURKSAT 4A              
1 39522U 14007A   26160.49276566  .00000163  00000+0  00000+0 0  9991
2 39522   0.0519 295.1305 0001385  29.6702 152.4557  1.00270579 44891
EXPRESS-AT1             
1 39612U 14010A   26160.49666568  .00000049  00000+0  00000+0 0  9993
2 39612   0.2365  85.7647 0003886  36.1967  16.1799  1.00302120 44744
EXPRESS-AT2             
1 39613U 14010B   26160.49553899  .00000096  00000+0  00000+0 0  9998
2 39613   0.0160 285.5845 0000202  65.9201 140.7616  1.00270737 44421
AMAZONAS 4A             
1 39616U 14011A   26160.39849963 -.00000235  00000+0  00000+0 0  9997
2 39616   0.0645 200.3047 0003811 266.0313 220.9020  1.00272877 44638
ASTRA 5B                
1 39617U 14011B   26160.34636075  .00000154  00000+0  00000+0 0  9990
2 39617   0.0545 320.4335 0002036 105.7966 339.6794  1.00270342 44588
IRNSS-1B                
1 39635U 14017A   26154.79691352  .00000128  00000+0  00000+0 0  9998
2 39635  28.9456 240.6342 0023143 186.5094 167.0601  1.00272113 44656
LUCH-5V                 
1 39727U 14023A   26160.14672435 -.00000252  00000+0  00000+0 0  9993
2 39727   5.1126  69.8311 0002822  33.3646 301.8218  1.00267244 44278
KAZSAT-3                
1 39728U 14023B   26160.49605899  .00000078  00000+0  00000+0 0  9997
2 39728   0.0249  48.1706 0000157   0.6392  86.1335  1.00270807 42383
EUTELSAT 3B             
1 39773U 14030A   26160.26225317  .00000037  00000+0  00000+0 0  9998
2 39773   0.0610 357.3799 0003956  81.7198 276.0602  1.00272633 43989
ASIASAT 8 (AMOS-7)      
1 40107U 14046A   26160.50533237 -.00000316  00000+0  00000+0 0  9999
2 40107   0.0177 318.8308 0001434 120.7600 105.5359  1.00270642102078
ASIASAT 6               
1 40141U 14052A   26160.43687388  .00000000  00000+0  00000+0 0  9992
2 40141   0.0192 351.7674 0000684 109.8836  73.3476  1.00268369 43002
OPTUS 10                
1 40146U 14054A   26160.54148573 -.00000130  00000+0  00000+0 0  9994
2 40146   0.0540  67.1682 0001956  11.3661 170.3072  1.00270134 42953
MEASAT-3B               
1 40147U 14054B   26160.50255904 -.00000225  00000+0  00000+0 0  9993
2 40147   0.0486  48.2171 0003135  20.5602 101.5171  1.00272253 42831
HIMAWARI-8              
1 40267U 14060A   26159.84027778 -.00000259  00000+0  00000+0 0  9991
2 40267   0.0136 319.3355 0000818 138.5674 242.4936  1.00270961 42676
IRNSS-1C                
1 40269U 14061A   26159.85040343 -.00000145  00000+0  00000+0 0  9992
2 40269   6.4974  89.0865 0022645   1.4878 195.8228  1.00270647 42600
INTELSAT 30 (IS-30)     
1 40271U 14062A   26160.45931153 -.00000133  00000+0  00000+0 0  9999
2 40271   0.0210  37.4356 0000875 356.8023 293.8423  1.00267702  6714
ARSAT 1                 
1 40272U 14062B   26160.39893296 -.00000243  00000+0  00000+0 0  9990
2 40272   0.0140   4.4256 0001724  72.0389 253.1201  1.00269778 42545
