OBJECT_NAME,OBJECT_ID,EPOCH,MEAN_MOTION,ECCENTRICITY,INCLINATION,RA_OF_ASC_NODE,ARG_OF_PERICENTER,MEAN_ANOMALY,EPHEMERIS_TYPE,CLASSIFICATION_TYPE,NORAD_CAT_ID,ELEMENT_SET_NO,REV_AT_EPOCH,BSTAR,MEAN_MOTION_DOT,MEAN_MOTION_DDOT
GSAT-7,2013-044B,2026-06-09T11:58:41.579040,1.00270588,.0003043,0.0636,99.5765,189.1445,222.8178,0,U,39234,999,4518,0,-.6E-6,0
AMOS-4,2013-045A,2026-06-09T11:56:11.819328,1.00271494,.0002577,0.0354,92.2240,324.2847,85.4109,0,U,39237,999,4688,0,.24E-6,0
AEHF-3 (USA 246),2013-050A,2026-06-09T11:17:37.222080,1.00270670,.0087777,5.2755,67.2537,188.0666,47.6431,0,U,39256,999,4557,0,.45E-6,0
ASTRA 2E,2013-056A,2026-06-09T03:12:26.290368,1.00274204,.00027019,0.0660,323.6010,123.8507,246.6953,0,U,39285,999,4633,0,.167E-5,0
FM-6,2013-058A,2026-06-08T15:06:37.024416,1.00255605,.00027713,0.0107,82.6412,69.5183,215.1325,0,U,39360,999,4598,0,.3E-7,0
RADUGA-1M 3,2013-062A,2026-06-08T22:30:20.654784,1.00272235,.00014766,5.9359,72.4566,268.2726,289.1612,0,U,39375,999,4602,0,.168E-5,0
SES-8,2013-071A,2026-06-09T12:04:41.003904,1.00270194,.0002815,0.0316,278.4438,167.2018,88.4086,0,U,39460,999,4435,0,-.252E-5,0
INMARSAT 5-F1,2013-073A,2026-06-09T11:55:26.891328,1.00271530,.0000452,0.0176,8.6429,313.1528,177.5648,0,U,39476,999,4550,0,.45E-6,0
TKSAT-1 (TUPAC KATARI),2013-075A,2026-06-09T09:30:05.728032,1.00271878,.000252,0.0268,159.1668,269.3123,244.6377,0,U,39481,999,4552,0,-.178E-5,0
EXPRESS-AM5,2013-077A,2026-06-08T19:10:54.873408,1.00272967,.00005105,0.0130,288.2715,83.6383,313.0502,0,U,39487,999,4627,0,-.263E-5,0
GSAT-14,2014-001A,2026-06-09T11:58:41.579040,1.00269526,.000099,0.0135,8.2532,276.5701,226.7132,0,U,39498,999,4530,0,0,0
THAICOM 6,2014-002A,2026-06-09T10:17:22.028352,1.00269478,.0004518,0.0849,104.9062,359.5049,26.2248,0,U,39500,999,4538,0,-.103E-5,0
TDRS 12,2014-004A,2026-06-09T11:25:53.373216,1.00269700,.0002872,3.9692,18.9520,197.8626,171.6093,0,U,39504,999,4420,0,-.255E-5,0
ABS-2,2014-006A,2026-06-09T11:58:56.554752,1.00271351,.0004054,0.0332,78.1662,346.7040,87.6707,0,U,39508,999,4520,0,-.69E-6,0
ATHENA-FIDUS,2014-006B,2026-06-09T04:57:44.737056,1.00270971,.0001428,0.0437,101.5707,352.5836,275.6670,0,U,39509,999,4500,0,.171E-5,0
TURKSAT 4A,2014-007A,2026-06-09T11:49:34.953024,1.00270579,.0001385,0.0519,295.1305,29.6702,152.4557,0,U,39522,999,4489,0,.163E-5,0
EXPRESS-AT1,2014-010A,2026-06-09T11:55:11.914752,1.00302120,.0003886,0.2365,85.7647,36.1967,16.1799,0,U,39612,999,4474,0,.49E-6,0
EXPRESS-AT2,2014-010B,2026-06-09T11:53:34.568736,1.00270737,.0000202,0.0160,285.5845,65.9201,140.7616,0,U,39613,999,4442,0,.96E-6,0
AMAZONAS 4A,2014-011A,2026-06-09T09:33:50.368032,1.00272877,.0003811,0.0645,200.3047,266.0313,220.9020,0,U,39616,999,4463,0,-.235E-5,0
ASTRA 5B,2014-011B,2026-06-09T08:18:45.568800,1.00270342,.0002036,0.0545,320.4335,105.7966,339.6794,0,U,39617,999,4458,0,.154E-5,0
IRNSS-1B,2014-017A,2026-06-03T19:07:33.328128,1.00272113,.0023143,28.9456,240.6342,186.5094,167.0601,0,U,39635,999,4465,0,.128E-5,0
LUCH-5V,2014-023A,2026-06-09T03:31:16.983840,1.00267244,.00028224,5.1126,69.8311,33.3646,301.8218,0,U,39727,999,4427,0,-.252E-5,0
KAZSAT-3,2014-023B,2026-06-09T11:54:19.496736,1.00270807,.0000157,0.0249,48.1706,0.6392,86.1335,0,U,39728,999,4238,0,.78E-6,0
EUTELSAT 3B,2014-030A,2026-06-09T06:17:38.673888,1.00272633,.0003956,0.0610,357.3799,81.7198,276.0602,0,U,39773,999,4398,0,.37E-6,0
ASIASAT 8 (AMOS-7),2014-046A,2026-06-09T12:07:40.716768,1.00270642,.0001434,0.0177,318.8308,120.7600,105.5359,0,U,40107,999,10207,0,-.316E-5,0
ASIASAT 6,2014-052A,2026-06-09T10:29:05.903232,1.00268369,.0000684,0.0192,351.7674,109.8836,73.3476,0,U,40141,999,4300,0,0,0
OPTUS 10,2014-054A,2026-06-09T12:59:44.367072,1.00270134,.0001956,0.0540,67.1682,11.3661,170.3072,0,U,40146,999,4295,0,-.13E-5,0
MEASAT-3B,2014-054B,2026-06-09T12:03:41.101056,1.00272253,.0003135,0.0486,48.2171,20.5602,101.5171,0,U,40147,999,4283,0,-.225E-5,0
HIMAWARI-8,2014-060A,2026-06-08T20:10:00.000192,1.00270961,.00008182,0.0136,319.3355,138.5674,242.4936,0,U,40267,999,4267,0,-.259E-5,0
IRNSS-1C,2014-061A,2026-06-08T20:24:34.856352,1.00270647,.00226452,6.4974,89.0865,1.4878,195.8228,0,U,40269,999,4260,0,-.145E-5,0
INTELSAT 30 (IS-30),2014-062A,2026-06-09T11:01:24.516192,1.00267702,.0000875,0.0210,37.4356,356.8023,293.8423,0,U,40271,999,671,0,-.133E-5,0
ARSAT 1,2014-062B,2026-06-09T09:34:27.807744,1.00269778,.0001724,0.0140,4.4256,72.0389,253.1201,0,U,40272,999,4254,0,-.243E-5,0
